MEAN_MOTION;ECCENTRICITY;INCLINATION;RA_OF_ASC_NODE;ARG_OF_PERICENTER;MEAN_ANOMALY;BSTAR;MEAN_MOTION_DOT;MEAN_MOTION_DDOT;TYPE
0.99438756;0.0007872;13.6825;334.2244;211.8253;340.4317;0;-6.4E-7;0;Intelsat
0.99438557;0.0007881;13.6812;334.2142;211.6703;326.8973;0;-4.5E-7;0;Intelsat
0.994384;0.000789;13.6799;334.2034;211.5736;331.3477;0;-2.6E-7;0;Intelsat
0.9943831;0.0007896;13.6786;334.1928;211.7705;330.7189;0;-9.0E-8;0;Intelsat
0.99438304;0.0007898;13.6761;334.1717;211.6467;330.0184;0;2.2E-7;0;Intelsat
0.99438296;0.0007898;13.676;334.1714;211.6391;340.5288;0;2.2E-7;0;Intelsat
0.99438356;0.0007893;13.6748;334.1612;211.6169;329.6236;0;3.5E-7;0;Intelsat
0.99438464;0.000788;13.6734;334.1497;211.2909;3.608;0;4.9E-7;0;Intelsat
0.99438468;0.0007876;13.6732;334.1489;211.2191;29.7472;0;5.0E-7;0;Intelsat
0.99438624;0.0007866;13.6721;334.1401;210.8776;331.7878;0;5.9E-7;0;Intelsat
0.9943886;0.0007852;13.6708;334.1296;210.8719;332.7338;0;6.8E-7;0;Intelsat
0.99439124;0.0007835;13.6695;334.1191;210.8397;335.3533;0;7.5E-7;0;Intelsat
0.99439473;0.0007814;13.6679;334.107;210.684;29.5158;0;8.0E-7;0;Intelsat
0.99439507;0.0007812;13.6678;334.1061;210.7034;59.942;0;8.1E-7;0;Intelsat
0.99439773;0.0007802;13.6668;334.0983;210.6128;328.1324;0;8.2E-7;0;Intelsat
0.99439852;0.0007795;13.6665;334.0958;210.5199;55.9284;0;8.3E-7;0;Intelsat
0.99440138;0.0007783;13.6655;334.0878;210.4157;327.8698;0;8.2E-7;0;Intelsat
0.99440245;0.0007778;13.6651;334.085;210.287;68.0252;0;8.2E-7;0;Intelsat
0.9944055;0.0007765;13.6641;334.0775;210.1027;327.7951;0;7.9E-7;0;Intelsat
0.99440995;0.0007752;13.6628;334.067;209.773;327.7146;0;7.5E-7;0;Intelsat
0.99441465;0.0007741;13.6613;334.0561;209.3871;344.608;0;6.7E-7;0;Intelsat
0.99441917;0.0007733;13.66;334.0462;209.1115;327.5493;0;5.8E-7;0;Intelsat
0.99442408;0.0007729;13.6587;334.0357;208.8139;327.4331;0;4.6E-7;0;Intelsat
0.99442898;0.000773;13.6573;334.0253;208.4983;327.3632;0;3.3E-7;0;Intelsat
0.99443361;0.0007739;13.656;334.015;208.1544;327.285;0;1.9E-7;0;Intelsat
0.99443598;0.0007754;13.6552;334.0098;208.0533;148.5218;0;1.1E-7;0;Intelsat
0.99443825;0.0007751;13.6546;334.0046;207.8282;327.2097;0;3.0E-8;0;Intelsat
0.99444058;0.0007767;13.6539;333.9994;207.7498;147.0947;0;-5.0E-8;0;Intelsat
0.99444279;0.0007761;13.6532;333.9942;207.5545;327.1011;0;-1.4E-7;0;Intelsat
0.99444712;0.0007777;13.6519;333.9839;207.2697;326.9795;0;-3.2E-7;0;Intelsat
0.99445111;0.00078;13.6505;333.9735;206.9542;326.8906;0;-5.2E-7;0;Intelsat
0.99445497;0.0007818;13.6491;333.963;206.777;326.697;0;-7.2E-7;0;Intelsat
0.99445818;0.0007842;13.6478;333.9527;206.5765;318.3132;0;-9.2E-7;0;Intelsat
0.99446127;0.0007867;13.6464;333.942;206.385;326.2755;0;-1.14E-6;0;Intelsat
0.99446387;0.0007888;13.6451;333.9315;206.2611;326.0324;0;-1.36E-6;0;Intelsat
0.99446598;0.0007911;13.6438;333.921;206.1511;325.7563;0;-1.58E-6;0;Intelsat
0.99446771;0.0007928;13.6424;333.9105;206.0802;325.4303;0;-1.78E-6;0;Intelsat
0.99446891;0.0007944;13.6411;333.9001;206.0224;325.0908;0;-1.98E-6;0;Intelsat
0.99446962;0.0007954;13.6398;333.8897;205.9978;324.7412;0;-2.16E-6;0;Intelsat
0.99446979;0.0007963;13.6385;333.8793;205.9609;324.4035;0;-2.32E-6;0;Intelsat
0.99446887;0.0007971;13.6358;333.8585;205.8785;323.7077;0;-2.58E-6;0;Intelsat
0.99446885;0.0007971;13.6357;333.8578;205.8673;349.3609;0;-2.59E-6;0;Intelsat
0.99446787;0.0007974;13.6345;333.8482;205.8051;323.3877;0;-2.67E-6;0;Intelsat
0.99446643;0.0007972;13.6331;333.8379;205.7302;323.0798;0;-2.75E-6;0;Intelsat
0.99446627;0.0007968;13.633;333.8371;205.7332;348.7185;0;-2.76E-6;0;Intelsat
0.99446447;0.0007968;13.6317;333.8275;205.6323;322.7833;0;-2.8E-6;0;Intelsat
0.99446331;0.0007964;13.631;333.8215;205.5407;168.3169;0;-2.83E-6;0;Intelsat
0.99446236;0.0007961;13.6304;333.8171;205.5368;322.4862;0;-2.84E-6;0;Intelsat
0.99446218;0.0007962;13.6303;333.8163;205.5104;348.1542;0;-2.85E-6;0;Intelsat
0.99446093;0.0007958;13.6296;333.8111;205.4182;168.0503;0;-2.86E-6;0;Intelsat
0.99445977;0.0007953;13.629;333.8065;205.42;327.8254;0;-2.86E-6;0;Intelsat
0.99445811;0.0007951;13.6282;333.8007;205.2776;167.7936;0;-2.87E-6;0;Intelsat
0.99445688;0.0007946;13.6276;333.7962;205.275;321.9629;0;-2.87E-6;0;Intelsat
0.99445669;0.0007945;13.6275;333.7955;205.2495;347.63;0;-2.87E-6;0;Intelsat
0.99445383;0.0007945;13.6263;333.7858;205.0833;321.7481;0;-2.86E-6;0;Intelsat
0.99445045;0.000795;13.6249;333.7754;204.8409;321.6075;0;-2.83E-6;0;Intelsat
0.99445027;0.0007951;13.6247;333.7747;204.8039;347.2861;0;-2.83E-6;0;Intelsat
0.9944486;0.000797;13.6241;333.7695;204.6131;167.284;0;-2.81E-6;0;Intelsat
0.99444506;0.0007979;13.6226;333.7591;204.3767;167.1071;0;-2.76E-6;0;Intelsat
0.99444334;0.0007975;13.622;333.7539;204.2834;346.9993;0;-2.73E-6;0;Intelsat
0.99444155;0.0007987;13.6212;333.7488;204.1598;166.9501;0;-2.69E-6;0;Intelsat
0.99443784;0.0008006;13.6198;333.7384;203.9142;166.695;0;-2.62E-6;0;Intelsat
0.9944342;0.0008024;13.6184;333.7281;203.6786;166.5581;0;-2.53E-6;0;Intelsat
0.9944342;0.0008024;13.6184;333.7281;203.6786;166.5581;0;-2.52E-6;0;Intelsat
0.99443266;0.0008027;13.6178;333.7235;203.5587;327.2518;0;-2.48E-6;0;Intelsat
0.99443057;0.0008052;13.617;333.7178;203.4158;166.4213;0;-2.42E-6;0;Intelsat
0.99442684;0.0008074;13.6156;333.7075;203.189;166.2465;0;-2.31E-6;0;Intelsat
0.99442313;0.0008103;13.6142;333.6971;203.0107;166.0288;0;-2.18E-6;0;Intelsat
0.9944196;0.0008131;13.6128;333.6867;202.8259;165.7929;0;-2.06E-6;0;Intelsat
0.99441797;0.0008154;13.6121;333.6815;202.7138;345.708;0;-1.99E-6;0;Intelsat
0.99441312;0.000821;13.61;333.6658;202.4942;165.2995;0;-1.8E-6;0;Intelsat
0.99440997;0.0008246;13.6086;333.6553;202.3753;165.0213;0;-1.67E-6;0;Intelsat
0.99440714;0.0008283;13.6073;333.6448;202.2791;164.6912;0;-1.54E-6;0;Intelsat
0.99440447;0.0008315;13.6059;333.6343;202.2348;164.3238;0;-1.4E-6;0;Intelsat
0.99440323;0.0008334;13.6053;333.6293;202.233;336.2368;0;-1.34E-6;0;Intelsat
0.99440096;0.0008361;13.604;333.6191;202.2215;330.5094;0;-1.2E-6;0;Intelsat
0.99439982;0.0008371;13.6032;333.6135;202.2162;163.5101;0;-1.12E-6;0;Intelsat
0.99439792;0.0008391;13.6019;333.6034;202.2345;153.7342;0;-9.8E-7;0;Intelsat
0.99439706;0.0008403;13.6011;333.598;202.2531;342.8534;0;-9.0E-7;0;Intelsat
0.99439653;0.0008404;13.6006;333.5942;202.2715;115.9065;0;-8.4E-7;0;Intelsat
0.99439497;0.0008421;13.5991;333.5825;202.2593;162.231;0;-6.6E-7;0;Intelsat
0.99439445;0.0008431;13.5984;333.5773;202.2764;342.0049;0;-5.8E-7;0;Intelsat
0.99439402;0.000843;13.5977;333.5721;202.2596;161.8051;0;-4.9E-7;0;Intelsat
0.9943936;0.0008444;13.5963;333.5618;202.2233;161.4125;0;-3.2E-7;0;Intelsat
0.99439336;0.0008452;13.5955;333.5566;202.2401;341.1861;0;-2.4E-7;0;Intelsat
0.99439317;0.0008454;13.5948;333.5513;202.1781;165.3538;0;-1.6E-7;0;Intelsat
0.9943932;0.000846;13.5941;333.5462;202.1935;340.8168;0;-8.0E-8;0;Intelsat
0.99439343;0.0008459;13.5934;333.541;202.1371;160.6872;0;0;0;Intelsat
0.994394;0.0008471;13.5922;333.532;202.0606;113.0374;0;1.3E-7;0;Intelsat
0.99439401;0.0008476;13.592;333.5305;202.0357;160.3456;0;1.5E-7;0;Intelsat
0.99439445;0.000848;13.5913;333.5253;202.0359;340.1358;0;2.2E-7;0;Intelsat
0.99439504;0.000848;13.5906;333.5202;201.9679;156.8523;0;2.8E-7;0;Intelsat
0.99439633;0.0008496;13.5891;333.5097;201.8506;154.6094;0;4.1E-7;0;Intelsat
0.99439791;0.0008497;13.5876;333.4992;201.7715;159.3696;0;5.2E-7;0;Intelsat
0.99440004;0.0008506;13.5861;333.4887;201.6612;159.069;0;6.1E-7;0;Intelsat
0.99440249;0.0008528;13.5846;333.4781;201.5081;162.277;0;6.9E-7;0;Intelsat
0.99440688;0.0008554;13.5824;333.4625;201.2736;338.419;0;7.6E-7;0;Intelsat
0.99440862;0.0008575;13.5817;333.4572;201.2268;163.6299;0;7.8E-7;0;Intelsat
0.99441203;0.0008601;13.5803;333.4469;201.087;157.9957;0;8.0E-7;0;Intelsat
0.99441386;0.000861;13.5795;333.4417;200.9639;337.8889;0;8.0E-7;0;Intelsat
0.9944158;0.0008637;13.5788;333.4365;200.9418;157.687;0;8.0E-7;0;Intelsat
0.99441821;0.0008656;13.5779;333.4299;200.7941;22.8796;0;7.8E-7;0;Intelsat
0.9944232;0.0008705;13.5762;333.4168;200.6994;113.5635;0;7.3E-7;0;Intelsat
0.99442373;0.0008709;13.576;333.4155;200.7048;157.0955;0;7.2E-7;0;Intelsat
0.99442805;0.0008745;13.5746;333.405;200.6066;156.7686;0;6.5E-7;0;Intelsat
0.99443241;0.0008776;13.5732;333.3947;200.5368;146.6606;0;5.5E-7;0;Intelsat
0.99443703;0.0008815;13.5717;333.3838;200.4917;156.078;0;4.2E-7;0;Intelsat
0.99444137;0.0008853;13.5703;333.3733;200.4724;155.7062;0;2.7E-7;0;Intelsat
0.99444577;0.0008887;13.5689;333.3627;200.4842;155.3047;0;1.0E-7;0;Intelsat
0.99444796;0.0008906;13.5682;333.3574;200.4631;335.1196;0;0;0;Intelsat
0.99445021;0.0008927;13.5675;333.352;200.5197;154.866;0;-1.0E-7;0;Intelsat
0.99445439;0.0008962;13.5661;333.3415;200.5819;154.399;0;-3.1E-7;0;Intelsat
0.99445642;0.0008973;13.5654;333.3362;200.5881;334.1962;0;-4.2E-7;0;Intelsat
0.99445839;0.000899;13.5648;333.3313;200.6621;140.2561;0;-5.2E-7;0;Intelsat
0.994462;0.0009012;13.5634;333.3209;200.7559;135.815;0;-7.5E-7;0;Intelsat
0.99446555;0.0009033;13.562;333.3098;200.8443;152.9353;0;-9.8E-7;0;Intelsat
0.99446878;0.0009053;13.5605;333.2993;200.9237;152.4923;0;-1.21E-6;0;Intelsat
0.99447146;0.0009064;13.5591;333.2888;200.9994;152.0221;0;-1.43E-6;0;Intelsat
0.99447372;0.000907;13.5576;333.2783;201.0688;151.541;0;-1.64E-6;0;Intelsat
0.99447662;0.0009077;13.5555;333.2624;201.1708;330.8662;0;-1.95E-6;0;Intelsat
0.99447735;0.0009081;13.5547;333.2571;201.157;150.6809;0;-2.05E-6;0;Intelsat
0.99447836;0.0009087;13.5533;333.2464;201.1725;150.2742;0;-2.24E-6;0;Intelsat
0.99447867;0.0009086;13.5524;333.2402;201.2109;0.0579;0;-2.35E-6;0;Intelsat
0.99447879;0.0009095;13.5518;333.2358;201.1736;149.8852;0;-2.43E-6;0;Intelsat
0.9944788;0.0009117;13.5503;333.2252;201.1455;149.545;0;-2.6E-6;0;Intelsat
0.99447838;0.0009129;13.5489;333.2147;201.1124;149.1898;0;-2.76E-6;0;Intelsat
0.99447737;0.000914;13.5474;333.2032;201.063;174.4245;0;-2.91E-6;0;Intelsat
0.99447582;0.0009142;13.546;333.1925;200.983;174.1604;0;-3.03E-6;0;Intelsat
0.99447382;0.0009188;13.5445;333.182;200.9336;173.8106;0;-3.13E-6;0;Intelsat
